{
  "type": "FeatureCollection",
  "features": [
    {
      "type": "Feature",
      "geometry": {
        "type": "Polygon",
        "coordinates": [
          [
            [
              -91.6437922,
              30.2878429
            ],
            [
              -91.6437934,
              30.2877526
            ],
            [
              -91.6438974,
              30.2877537
            ],
            [
              -91.6438986,
              30.2876635
            ],
            [
              -91.6440026,
              30.2876646
            ],
            [
              -91.6440038,
              30.2875744
            ],
            [
              -91.6441078,
              30.2875754
            ],
            [
              -91.644109,
              30.2874852
            ],
            [
              -91.644005,
              30.2874842
            ],
            [
              -91.6440063,
              30.2873939
            ],
            [
              -91.6439023,
              30.2873929
            ],
            [
              -91.6439036,
              30.2873026
            ],
            [
              -91.6437996,
              30.2873016
            ],
            [
              -91.6438009,
              30.2872113
            ],
            [
              -91.6436969,
              30.2872103
            ],
            [
              -91.6436981,
              30.2871201
            ],
            [
              -91.6435942,
              30.287119
            ],
            [
              -91.6435954,
              30.2870288
            ],
            [
              -91.6436994,
              30.2870298
            ],
            [
              -91.6437006,
              30.2869396
            ],
            [
              -91.6435967,
              30.2869385
            ],
            [
              -91.6435979,
              30.2868483
            ],
            [
              -91.643494,
              30.2868472
            ],
            [
              -91.6434952,
              30.286757
            ],
            [
              -91.6433913,
              30.286756
            ],
            [
              -91.6433937,
              30.2865755
            ],
            [
              -91.6434977,
              30.2865766
            ],
            [
              -91.6434989,
              30.2864864
            ],
            [
              -91.6436029,
              30.2864875
            ],
            [
              -91.6436041,
              30.2863972
            ],
            [
              -91.6437081,
              30.2863983
            ],
            [
              -91.6437093,
              30.2863081
            ],
            [
              -91.6438133,
              30.2863092
            ],
            [
              -91.6438145,
              30.286219
            ],
            [
              -91.6439185,
              30.28622
            ],
            [
              -91.6439197,
              30.2861298
            ],
            [
              -91.6438158,
              30.2861287
            ],
            [
              -91.6438195,
              30.2858581
            ],
            [
              -91.6439234,
              30.2858592
            ],
            [
              -91.6439247,
              30.285769
            ],
            [
              -91.6440286,
              30.28577
            ],
            [
              -91.6440299,
              30.2856798
            ],
            [
              -91.6441338,
              30.2856809
            ],
            [
              -91.6441351,
              30.2855907
            ],
            [
              -91.644239,
              30.2855918
            ],
            [
              -91.6442403,
              30.2855015
            ],
            [
              -91.64476,
              30.2855069
            ],
            [
              -91.6447613,
              30.2854167
            ],
            [
              -91.6448652,
              30.2854178
            ],
            [
              -91.6448665,
              30.2853276
            ],
            [
              -91.6449704,
              30.2853286
            ],
            [
              -91.6449716,
              30.2852384
            ],
            [
              -91.6450756,
              30.2852395
            ],
            [
              -91.6450781,
              30.2850591
            ],
            [
              -91.6449741,
              30.285058
            ],
            [
              -91.6449754,
              30.2849678
            ],
            [
              -91.6450793,
              30.2849688
            ],
            [
              -91.6450843,
              30.284608
            ],
            [
              -91.6452922,
              30.2846101
            ],
            [
              -91.6452934,
              30.2845199
            ],
            [
              -91.6453974,
              30.284521
            ],
            [
              -91.6453986,
              30.2844308
            ],
            [
              -91.6455026,
              30.2844318
            ],
            [
              -91.6455038,
              30.2843416
            ],
            [
              -91.6456078,
              30.2843427
            ],
            [
              -91.645609,
              30.2842525
            ],
            [
              -91.6457129,
              30.2842536
            ],
            [
              -91.6457142,
              30.2841633
            ],
            [
              -91.6458181,
              30.2841644
            ],
            [
              -91.6458194,
              30.2840742
            ],
            [
              -91.6459233,
              30.2840753
            ],
            [
              -91.6459258,
              30.2838948
            ],
            [
              -91.6460298,
              30.2838959
            ],
            [
              -91.646031,
              30.2838057
            ],
            [
              -91.6462389,
              30.2838079
            ],
            [
              -91.6462401,
              30.2837176
            ],
            [
              -91.6463441,
              30.2837187
            ],
            [
              -91.6463453,
              30.2836285
            ],
            [
              -91.6465532,
              30.2836306
            ],
            [
              -91.6465545,
              30.2835404
            ],
            [
              -91.6467624,
              30.2835426
            ],
            [
              -91.6467636,
              30.2834524
            ],
            [
              -91.6468676,
              30.2834534
            ],
            [
              -91.6468688,
              30.2833632
            ],
            [
              -91.6469727,
              30.2833643
            ],
            [
              -91.646974,
              30.2832741
            ],
            [
              -91.6470779,
              30.2832752
            ],
            [
              -91.6470804,
              30.2830947
            ],
            [
              -91.6471844,
              30.2830958
            ],
            [
              -91.6471856,
              30.2830056
            ],
            [
              -91.6472896,
              30.2830067
            ],
            [
              -91.6473007,
              30.2821947
            ],
            [
              -91.6471967,
              30.2821936
            ],
            [
              -91.647198,
              30.2821034
            ],
            [
              -91.647094,
              30.2821023
            ],
            [
              -91.6470965,
              30.2819219
            ],
            [
              -91.6472005,
              30.281923
            ],
            [
              -91.6472079,
              30.2813817
            ],
            [
              -91.6471039,
              30.2813806
            ],
            [
              -91.6471064,
              30.2812002
            ],
            [
              -91.6470025,
              30.2811991
            ],
            [
              -91.6470037,
              30.2811089
            ],
            [
              -91.6468998,
              30.2811078
            ],
            [
              -91.646901,
              30.2810176
            ],
            [
              -91.646797,
              30.2810165
            ],
            [
              -91.6467983,
              30.2809263
            ],
            [
              -91.6464864,
              30.2809231
            ],
            [
              -91.6464889,
              30.2807426
            ],
            [
              -91.646385,
              30.2807416
            ],
            [
              -91.6463874,
              30.2805611
            ],
            [
              -91.6462835,
              30.28056
            ],
            [
              -91.6462847,
              30.2804698
            ],
            [
              -91.6461808,
              30.2804688
            ],
            [
              -91.646182,
              30.2803785
            ],
            [
              -91.6460781,
              30.2803775
            ],
            [
              -91.6460793,
              30.2802872
            ],
            [
              -91.6459754,
              30.2802862
            ],
            [
              -91.6459766,
              30.280196
            ],
            [
              -91.6458727,
              30.2801949
            ],
            [
              -91.6458739,
              30.2801047
            ],
            [
              -91.64577,
              30.2801036
            ],
            [
              -91.6457712,
              30.2800134
            ],
            [
              -91.6453554,
              30.2800091
            ],
            [
              -91.6453566,
              30.2799189
            ],
            [
              -91.6452527,
              30.2799178
            ],
            [
              -91.6452539,
              30.2798276
            ],
            [
              -91.645046,
              30.2798254
            ],
            [
              -91.6450473,
              30.2797352
            ],
            [
              -91.6449433,
              30.2797341
            ],
            [
              -91.6449446,
              30.2796439
            ],
            [
              -91.6448406,
              30.2796428
            ],
            [
              -91.6448419,
              30.2795526
            ],
            [
              -91.6447379,
              30.2795515
            ],
            [
              -91.6447367,
              30.2796417
            ],
            [
              -91.6446327,
              30.2796407
            ],
            [
              -91.6446352,
              30.2794602
            ],
            [
              -91.6445313,
              30.2794592
            ],
            [
              -91.6445325,
              30.2793689
            ],
            [
              -91.6444286,
              30.2793679
            ],
            [
              -91.6444298,
              30.2792776
            ],
            [
              -91.6443259,
              30.2792766
            ],
            [
              -91.6443271,
              30.2791864
            ],
            [
              -91.6442231,
              30.2791853
            ],
            [
              -91.6442244,
              30.2790951
            ],
            [
              -91.6438086,
              30.2790908
            ],
            [
              -91.6438074,
              30.279181
            ],
            [
              -91.6437034,
              30.2791799
            ],
            [
              -91.6437022,
              30.2792701
            ],
            [
              -91.6435982,
              30.279269
            ],
            [
              -91.643597,
              30.2793593
            ],
            [
              -91.643493,
              30.2793582
            ],
            [
              -91.6434918,
              30.2794484
            ],
            [
              -91.6435957,
              30.2794495
            ],
            [
              -91.6435945,
              30.2795397
            ],
            [
              -91.6434906,
              30.2795386
            ],
            [
              -91.6434881,
              30.279719
            ],
            [
              -91.643592,
              30.2797201
            ],
            [
              -91.6435895,
              30.2799006
            ],
            [
              -91.6434856,
              30.2798995
            ],
            [
              -91.6434831,
              30.2800799
            ],
            [
              -91.6435871,
              30.280081
            ],
            [
              -91.6435858,
              30.2801712
            ],
            [
              -91.6436898,
              30.2801723
            ],
            [
              -91.6436885,
              30.2802625
            ],
            [
              -91.6437925,
              30.2802636
            ],
            [
              -91.64379,
              30.280444
            ],
            [
              -91.6438939,
              30.2804451
            ],
            [
              -91.6438927,
              30.2805353
            ],
            [
              -91.6439966,
              30.2805364
            ],
            [
              -91.6439954,
              30.2806266
            ],
            [
              -91.6440994,
              30.2806277
            ],
            [
              -91.6440981,
              30.2807179
            ],
            [
              -91.6442021,
              30.280719
            ],
            [
              -91.6441959,
              30.28117
            ],
            [
              -91.6440919,
              30.281169
            ],
            [
              -91.6440894,
              30.2813494
            ],
            [
              -91.6439855,
              30.2813483
            ],
            [
              -91.6439842,
              30.2814385
            ],
            [
              -91.6438803,
              30.2814375
            ],
            [
              -91.6438815,
              30.2813473
            ],
            [
              -91.6435697,
              30.281344
            ],
            [
              -91.6435709,
              30.2812538
            ],
            [
              -91.643363,
              30.2812517
            ],
            [
              -91.6433643,
              30.2811614
            ],
            [
              -91.6430524,
              30.2811582
            ],
            [
              -91.6430537,
              30.281068
            ],
            [
              -91.6429497,
              30.2810669
            ],
            [
              -91.642951,
              30.2809767
            ],
            [
              -91.6426391,
              30.2809735
            ],
            [
              -91.6426404,
              30.2808832
            ],
            [
              -91.6425364,
              30.2808822
            ],
            [
              -91.6425377,
              30.2807919
            ],
            [
              -91.6423298,
              30.2807898
            ],
            [
              -91.642331,
              30.2806996
            ],
            [
              -91.6422271,
              30.2806985
            ],
            [
              -91.6422283,
              30.2806083
            ],
            [
              -91.6420204,
              30.2806061
            ],
            [
              -91.6420216,
              30.2805159
            ],
            [
              -91.6418137,
              30.2805137
            ],
            [
              -91.641815,
              30.2804235
            ],
            [
              -91.6416071,
              30.2804214
            ],
            [
              -91.6416059,
              30.2805116
            ],
            [
              -91.6415019,
              30.2805105
            ],
            [
              -91.6415007,
              30.2806007
            ],
            [
              -91.6413967,
              30.2805996
            ],
            [
              -91.6413955,
              30.2806899
            ],
            [
              -91.6412915,
              30.2806888
            ],
            [
              -91.6412903,
              30.280779
            ],
            [
              -91.6411863,
              30.2807779
            ],
            [
              -91.6411851,
              30.2808681
            ],
            [
              -91.6408732,
              30.2808649
            ],
            [
              -91.640872,
              30.2809551
            ],
            [
              -91.6406641,
              30.280953
            ],
            [
              -91.6406629,
              30.2810432
            ],
            [
              -91.640351,
              30.2810399
            ],
            [
              -91.6403498,
              30.2811302
            ],
            [
              -91.6400379,
              30.2811269
            ],
            [
              -91.6400367,
              30.2812171
            ],
            [
              -91.6399327,
              30.2812161
            ],
            [
              -91.639934,
              30.2811258
            ],
            [
              -91.6397261,
              30.2811237
            ],
            [
              -91.6397273,
              30.2810335
            ],
            [
              -91.6395194,
              30.2810313
            ],
            [
              -91.6395207,
              30.2809411
            ],
            [
              -91.6390009,
              30.2809357
            ],
            [
              -91.6389997,
              30.2810259
            ],
            [
              -91.6388957,
              30.2810248
            ],
            [
              -91.6388945,
              30.281115
            ],
            [
              -91.6387906,
              30.281114
            ],
            [
              -91.6387893,
              30.2812042
            ],
            [
              -91.6386854,
              30.2812031
            ],
            [
              -91.6386841,
              30.2812933
            ],
            [
              -91.6385802,
              30.2812922
            ],
            [
              -91.6385789,
              30.2813824
            ],
            [
              -91.638475,
              30.2813814
            ],
            [
              -91.6384737,
              30.2814716
            ],
            [
              -91.6385777,
              30.2814727
            ],
            [
              -91.6385764,
              30.2815629
            ],
            [
              -91.6386804,
              30.281564
            ],
            [
              -91.6386791,
              30.2816542
            ],
            [
              -91.6385752,
              30.2816531
            ],
            [
              -91.6385739,
              30.2817433
            ],
            [
              -91.6386779,
              30.2817444
            ],
            [
              -91.6386766,
              30.2818346
            ],
            [
              -91.6387806,
              30.2818357
            ],
            [
              -91.6387793,
              30.2819259
            ],
            [
              -91.6388833,
              30.281927
            ],
            [
              -91.638882,
              30.2820172
            ],
            [
              -91.638986,
              30.2820183
            ],
            [
              -91.6389872,
              30.2819281
            ],
            [
              -91.6391951,
              30.2819302
            ],
            [
              -91.6391864,
              30.2825617
            ],
            [
              -91.6392904,
              30.2825628
            ],
            [
              -91.6392854,
              30.2829237
            ],
            [
              -91.6391814,
              30.2829226
            ],
            [
              -91.639179,
              30.283103
            ],
            [
              -91.639075,
              30.283102
            ],
            [
              -91.6390738,
              30.2831922
            ],
            [
              -91.6391777,
              30.2831933
            ],
            [
              -91.6391765,
              30.2832835
            ],
            [
              -91.6392804,
              30.2832846
            ],
            [
              -91.6392792,
              30.2833748
            ],
            [
              -91.6393831,
              30.2833759
            ],
            [
              -91.6393819,
              30.2834661
            ],
            [
              -91.6394858,
              30.2834671
            ],
            [
              -91.6394846,
              30.2835574
            ],
            [
              -91.6395885,
              30.2835584
            ],
            [
              -91.6395848,
              30.2838291
            ],
            [
              -91.6396887,
              30.2838302
            ],
            [
              -91.6396863,
              30.2840106
            ],
            [
              -91.6397902,
              30.2840117
            ],
            [
              -91.639789,
              30.2841019
            ],
            [
              -91.6398929,
              30.284103
            ],
            [
              -91.6398879,
              30.2844639
            ],
            [
              -91.639784,
              30.2844628
            ],
            [
              -91.6397827,
              30.284553
            ],
            [
              -91.6396788,
              30.2845519
            ],
            [
              -91.6396775,
              30.2846421
            ],
            [
              -91.6397815,
              30.2846432
            ],
            [
              -91.639779,
              30.2848236
            ],
            [
              -91.639883,
              30.2848247
            ],
            [
              -91.6398817,
              30.2849149
            ],
            [
              -91.6399857,
              30.284916
            ],
            [
              -91.6399832,
              30.2850965
            ],
            [
              -91.6400871,
              30.2850975
            ],
            [
              -91.6400784,
              30.285729
            ],
            [
              -91.6401824,
              30.2857301
            ],
            [
              -91.6401799,
              30.2859106
            ],
            [
              -91.6402838,
              30.2859116
            ],
            [
              -91.6402826,
              30.2860019
            ],
            [
              -91.6403865,
              30.2860029
            ],
            [
              -91.6403853,
              30.2860932
            ],
            [
              -91.6404892,
              30.2860942
            ],
            [
              -91.640488,
              30.2861845
            ],
            [
              -91.640592,
              30.2861855
            ],
            [
              -91.6405895,
              30.286366
            ],
            [
              -91.6406934,
              30.286367
            ],
            [
              -91.6406922,
              30.2864573
            ],
            [
              -91.6407961,
              30.2864583
            ],
            [
              -91.6407949,
              30.2865486
            ],
            [
              -91.6408988,
              30.2865496
            ],
            [
              -91.6408964,
              30.2867301
            ],
            [
              -91.6410003,
              30.2867311
            ],
            [
              -91.6409991,
              30.2868214
            ],
            [
              -91.641103,
              30.2868224
            ],
            [
              -91.6411018,
              30.2869127
            ],
            [
              -91.6412057,
              30.2869137
            ],
            [
              -91.6412045,
              30.287004
            ],
            [
              -91.6413084,
              30.287005
            ],
            [
              -91.6413072,
              30.2870953
            ],
            [
              -91.6414112,
              30.2870963
            ],
            [
              -91.6414099,
              30.2871865
            ],
            [
              -91.6415139,
              30.2871876
            ],
            [
              -91.6415126,
              30.2872778
            ],
            [
              -91.6416166,
              30.2872789
            ],
            [
              -91.6416153,
              30.2873691
            ],
            [
              -91.6417193,
              30.2873702
            ],
            [
              -91.641718,
              30.2874604
            ],
            [
              -91.641822,
              30.2874615
            ],
            [
              -91.6418208,
              30.2875517
            ],
            [
              -91.6419247,
              30.2875528
            ],
            [
              -91.641926,
              30.2874626
            ],
            [
              -91.6424457,
              30.287468
            ],
            [
              -91.642447,
              30.2873778
            ],
            [
              -91.6430707,
              30.2873842
            ],
            [
              -91.6430682,
              30.2875647
            ],
            [
              -91.6431722,
              30.2875657
            ],
            [
              -91.6431709,
              30.287656
            ],
            [
              -91.6432749,
              30.287657
            ],
            [
              -91.6432736,
              30.2877473
            ],
            [
              -91.6433776,
              30.2877483
            ],
            [
              -91.6433764,
              30.2878386
            ],
            [
              -91.6434803,
              30.2878396
            ],
            [
              -91.6434815,
              30.2877494
            ],
            [
              -91.6435855,
              30.2877505
            ],
            [
              -91.6435843,
              30.2878407
            ],
            [
              -91.6437922,
              30.2878429
            ]
          ],
          [
            [
              -91.6438282,
              30.2852266
            ],
            [
              -91.6429965,
              30.285218
            ],
            [
              -91.6430003,
              30.2849473
            ],
            [
              -91.6428963,
              30.2849462
            ],
            [
              -91.6428976,
              30.284856
            ],
            [
              -91.6427936,
              30.2848549
            ],
            [
              -91.6427949,
              30.2847647
            ],
            [
              -91.6426909,
              30.2847636
            ],
            [
              -91.6426946,
              30.284493
            ],
            [
              -91.6427986,
              30.2844941
            ],
            [
              -91.6428085,
              30.2837723
            ],
            [
              -91.6429125,
              30.2837734
            ],
            [
              -91.6429137,
              30.2836832
            ],
            [
              -91.6430177,
              30.2836843
            ],
            [
              -91.6430214,
              30.2834136
            ],
            [
              -91.6429174,
              30.2834125
            ],
            [
              -91.6429187,
              30.2833223
            ],
            [
              -91.6428147,
              30.2833212
            ],
            [
              -91.642816,
              30.283231
            ],
            [
              -91.642712,
              30.28323
            ],
            [
              -91.6427133,
              30.2831397
            ],
            [
              -91.6426093,
              30.2831387
            ],
            [
              -91.6426105,
              30.2830484
            ],
            [
              -91.6425066,
              30.2830474
            ],
            [
              -91.6425078,
              30.2829571
            ],
            [
              -91.6424039,
              30.2829561
            ],
            [
              -91.6424026,
              30.2830463
            ],
            [
              -91.6420908,
              30.2830431
            ],
            [
              -91.6420896,
              30.2831333
            ],
            [
              -91.6419856,
              30.2831322
            ],
            [
              -91.6419868,
              30.283042
            ],
            [
              -91.6417789,
              30.2830398
            ],
            [
              -91.6417777,
              30.28313
            ],
            [
              -91.6414659,
              30.2831268
            ],
            [
              -91.6414671,
              30.2830366
            ],
            [
              -91.641571,
              30.2830377
            ],
            [
              -91.6415723,
              30.2829474
            ],
            [
              -91.6416762,
              30.2829485
            ],
            [
              -91.6416787,
              30.2827681
            ],
            [
              -91.6417827,
              30.2827692
            ],
            [
              -91.6417839,
              30.2826789
            ],
            [
              -91.64168,
              30.2826779
            ],
            [
              -91.6416825,
              30.2824974
            ],
            [
              -91.6417864,
              30.2824985
            ],
            [
              -91.6417889,
              30.2823181
            ],
            [
              -91.6418928,
              30.2823192
            ],
            [
              -91.6418941,
              30.2822289
            ],
            [
              -91.6417901,
              30.2822279
            ],
            [
              -91.6417914,
              30.2821376
            ],
            [
              -91.6416874,
              30.2821366
            ],
            [
              -91.6416887,
              30.2820464
            ],
            [
              -91.6415847,
              30.2820453
            ],
            [
              -91.641586,
              30.2819551
            ],
            [
              -91.641482,
              30.281954
            ],
            [
              -91.6414808,
              30.2820442
            ],
            [
              -91.6413768,
              30.2820431
            ],
            [
              -91.6413756,
              30.2821333
            ],
            [
              -91.6412716,
              30.2821323
            ],
            [
              -91.6412704,
              30.2822225
            ],
            [
              -91.6411664,
              30.2822214
            ],
            [
              -91.6411677,
              30.2821312
            ],
            [
              -91.6409598,
              30.282129
            ],
            [
              -91.6409585,
              30.2822192
            ],
            [
              -91.6408546,
              30.2822182
            ],
            [
              -91.6408533,
              30.2823084
            ],
            [
              -91.6407494,
              30.2823073
            ],
            [
              -91.6407482,
              30.2823975
            ],
            [
              -91.6405403,
              30.2823953
            ],
            [
              -91.640539,
              30.2824856
            ],
            [
              -91.6404351,
              30.2824845
            ],
            [
              -91.6404363,
              30.2823943
            ],
            [
              -91.6403324,
              30.2823932
            ],
            [
              -91.6403336,
              30.282303
            ],
            [
              -91.6401257,
              30.2823008
            ],
            [
              -91.6401269,
              30.2822106
            ],
            [
              -91.6402309,
              30.2822117
            ],
            [
              -91.6402321,
              30.2821215
            ],
            [
              -91.6403361,
              30.2821225
            ],
            [
              -91.6403373,
              30.2820323
            ],
            [
              -91.6405452,
              30.2820345
            ],
            [
              -91.640544,
              30.2821247
            ],
            [
              -91.6406479,
              30.2821258
            ],
            [
              -91.6406492,
              30.2820356
            ],
            [
              -91.6407531,
              30.2820366
            ],
            [
              -91.6407544,
              30.2819464
            ],
            [
              -91.6408583,
              30.2819475
            ],
            [
              -91.6408596,
              30.2818573
            ],
            [
              -91.6409635,
              30.2818584
            ],
            [
              -91.6409685,
              30.2814975
            ],
            [
              -91.6410724,
              30.2814986
            ],
            [
              -91.6410737,
              30.2814084
            ],
            [
              -91.6411776,
              30.2814094
            ],
            [
              -91.6411789,
              30.2813192
            ],
            [
              -91.6412828,
              30.2813203
            ],
            [
              -91.6412841,
              30.2812301
            ],
            [
              -91.641388,
              30.2812312
            ],
            [
              -91.641383,
              30.281592
            ],
            [
              -91.641487,
              30.2815931
            ],
            [
              -91.6414857,
              30.2816833
            ],
            [
              -91.6415897,
              30.2816844
            ],
            [
              -91.6415884,
              30.2817746
            ],
            [
              -91.6416924,
              30.2817757
            ],
            [
              -91.6416912,
              30.2818659
            ],
            [
              -91.6417951,
              30.281867
            ],
            [
              -91.6417963,
              30.2817768
            ],
            [
              -91.6419003,
              30.2817779
            ],
            [
              -91.6419015,
              30.2816876
            ],
            [
              -91.6421094,
              30.2816898
            ],
            [
              -91.6421082,
              30.28178
            ],
            [
              -91.6422121,
              30.2817811
            ],
            [
              -91.6422109,
              30.2818713
            ],
            [
              -91.6423148,
              30.2818724
            ],
            [
              -91.6423136,
              30.2819626
            ],
            [
              -91.6429373,
              30.2819691
            ],
            [
              -91.6429336,
              30.2822397
            ],
            [
              -91.6430375,
              30.2822408
            ],
            [
              -91.6430363,
              30.282331
            ],
            [
              -91.6431402,
              30.2823321
            ],
            [
              -91.643139,
              30.2824223
            ],
            [
              -91.6432429,
              30.2824234
            ],
            [
              -91.6432417,
              30.2825136
            ],
            [
              -91.6431378,
              30.2825125
            ],
            [
              -91.6431365,
              30.2826027
            ],
            [
              -91.6432405,
              30.2826038
            ],
            [
              -91.643238,
              30.2827843
            ],
            [
              -91.643134,
              30.2827832
            ],
            [
              -91.6431303,
              30.2830538
            ],
            [
              -91.6432343,
              30.2830549
            ],
            [
              -91.643233,
              30.2831451
            ],
            [
              -91.643337,
              30.2831462
            ],
            [
              -91.6433357,
              30.2832364
            ],
            [
              -91.6434397,
              30.2832375
            ],
            [
              -91.6434384,
              30.2833277
            ],
            [
              -91.6435424,
              30.2833288
            ],
            [
              -91.6435411,
              30.283419
            ],
            [
              -91.6436451,
              30.2834201
            ],
            [
              -91.6436463,
              30.2833299
            ],
            [
              -91.6437503,
              30.2833309
            ],
            [
              -91.6437478,
              30.2835114
            ],
            [
              -91.6438517,
              30.2835125
            ],
            [
              -91.6438493,
              30.2836929
            ],
            [
              -91.6437453,
              30.2836918
            ],
            [
              -91.6437441,
              30.283782
            ],
            [
              -91.643848,
              30.2837831
            ],
            [
              -91.6438468,
              30.2838733
            ],
            [
              -91.6437428,
              30.2838722
            ],
            [
              -91.6437404,
              30.2840527
            ],
            [
              -91.6436364,
              30.2840516
            ],
            [
              -91.6436352,
              30.2841418
            ],
            [
              -91.6435312,
              30.2841407
            ],
            [
              -91.64353,
              30.284231
            ],
            [
              -91.643426,
              30.2842299
            ],
            [
              -91.6434223,
              30.2845005
            ],
            [
              -91.6435262,
              30.2845016
            ],
            [
              -91.643525,
              30.2845918
            ],
            [
              -91.643629,
              30.2845929
            ],
            [
              -91.6436277,
              30.2846831
            ],
            [
              -91.6437317,
              30.2846842
            ],
            [
              -91.6437304,
              30.2847744
            ],
            [
              -91.6436265,
              30.2847733
            ],
            [
              -91.643624,
              30.2849538
            ],
            [
              -91.6437279,
              30.2849548
            ],
            [
              -91.6437267,
              30.2850451
            ],
            [
              -91.6438307,
              30.2850461
            ],
            [
              -91.6438282,
              30.2852266
            ]
          ]
        ]
      },
      "properties": {
        "area_km2": 0.3975,
        "pixel_count": 3975,
        "label_id": 10
      }
    },
    {
      "type": "Feature",
      "geometry": {
        "type": "Polygon",
        "coordinates": [
          [
            [
              -91.7467324,
              30.2626117
            ],
            [
              -91.7467336,
              30.2625214
            ],
            [
              -91.7468375,
              30.2625224
            ],
            [
              -91.7468386,
              30.2624322
            ],
            [
              -91.7469426,
              30.2624332
            ],
            [
              -91.7469437,
              30.262343
            ],
            [
              -91.7470476,
              30.262344
            ],
            [
              -91.7470499,
              30.2621635
            ],
            [
              -91.7471539,
              30.2621645
            ],
            [
              -91.747155,
              30.2620743
            ],
            [
              -91.7473629,
              30.2620763
            ],
            [
              -91.747364,
              30.2619861
            ],
            [
              -91.747468,
              30.2619871
            ],
            [
              -91.7474691,
              30.2618969
            ],
            [
              -91.747573,
              30.2618979
            ],
            [
              -91.7475742,
              30.2618076
            ],
            [
              -91.7476781,
              30.2618086
            ],
            [
              -91.7476793,
              30.2617184
            ],
            [
              -91.7477832,
              30.2617194
            ],
            [
              -91.7477843,
              30.2616292
            ],
            [
              -91.7476804,
              30.2616282
            ],
            [
              -91.7476815,
              30.261538
            ],
            [
              -91.7475776,
              30.261537
            ],
            [
              -91.7475799,
              30.2613565
            ],
            [
              -91.7476838,
              30.2613575
            ],
            [
              -91.7476861,
              30.2611771
            ],
            [
              -91.7475822,
              30.2611761
            ],
            [
              -91.7475879,
              30.260725
            ],
            [
              -91.747484,
              30.260724
            ],
            [
              -91.7474863,
              30.2605435
            ],
            [
              -91.7475902,
              30.2605445
            ],
            [
              -91.7475914,
              30.2604543
            ],
            [
              -91.7474874,
              30.2604533
            ],
            [
              -91.7474897,
              30.2602729
            ],
            [
              -91.7475936,
              30.2602739
            ],
            [
              -91.7475948,
              30.2601837
            ],
            [
              -91.7476987,
              30.2601847
            ],
            [
              -91.7476999,
              30.2600944
            ],
            [
              -91.7478038,
              30.2600954
            ],
            [
              -91.7478061,
              30.259915
            ],
            [
              -91.7477022,
              30.259914
            ],
            [
              -91.7477033,
              30.2598238
            ],
            [
              -91.7475994,
              30.2598228
            ],
            [
              -91.7476017,
              30.2596423
            ],
            [
              -91.7474977,
              30.2596413
            ],
            [
              -91.7475,
              30.2594609
            ],
            [
              -91.747604,
              30.2594619
            ],
            [
              -91.7476051,
              30.2593717
            ],
            [
              -91.747709,
              30.2593727
            ],
            [
              -91.7477113,
              30.2591922
            ],
            [
              -91.7476074,
              30.2591912
            ],
            [
              -91.7476143,
              30.2586499
            ],
            [
              -91.7477182,
              30.2586509
            ],
            [
              -91.7477193,
              30.2585607
            ],
            [
              -91.7476154,
              30.2585597
            ],
            [
              -91.7476165,
              30.2584695
            ],
            [
              -91.7475126,
              30.2584685
            ],
            [
              -91.7475138,
              30.2583782
            ],
            [
              -91.7474098,
              30.2583773
            ],
            [
              -91.747411,
              30.258287
            ],
            [
              -91.7472031,
              30.258285
            ],
            [
              -91.7472043,
              30.2581948
            ],
            [
              -91.7471003,
              30.2581938
            ],
            [
              -91.7471015,
              30.2581036
            ],
            [
              -91.7469976,
              30.2581026
            ],
            [
              -91.7469987,
              30.2580124
            ],
            [
              -91.7463751,
              30.2580064
            ],
            [
              -91.746374,
              30.2580966
            ],
            [
              -91.7462701,
              30.2580956
            ],
            [
              -91.7462689,
              30.2581859
            ],
            [
              -91.746165,
              30.2581849
            ],
            [
              -91.7461661,
              30.2580947
            ],
            [
              -91.7460622,
              30.2580937
            ],
            [
              -91.7460611,
              30.2581839
            ],
            [
              -91.7459571,
              30.2581829
            ],
            [
              -91.745956,
              30.2582731
            ],
            [
              -91.7458521,
              30.2582721
            ],
            [
              -91.7458509,
              30.2583623
            ],
            [
              -91.745747,
              30.2583613
            ],
            [
              -91.7457458,
              30.2584516
            ],
            [
              -91.7458498,
              30.2584526
            ],
            [
              -91.7458486,
              30.2585428
            ],
            [
              -91.7457447,
              30.2585418
            ],
            [
              -91.7457435,
              30.258632
            ],
            [
              -91.7458475,
              30.258633
            ],
            [
              -91.7458463,
              30.2587232
            ],
            [
              -91.7459502,
              30.2587242
            ],
            [
              -91.7459491,
              30.2588144
            ],
            [
              -91.7458452,
              30.2588134
            ],
            [
              -91.745844,
              30.2589037
            ],
            [
              -91.745948,
              30.2589047
            ],
            [
              -91.7459468,
              30.2589949
            ],
            [
              -91.7460507,
              30.2589959
            ],
            [
              -91.7460496,
              30.2590861
            ],
            [
              -91.7461535,
              30.2590871
            ],
            [
              -91.7461524,
              30.2591773
            ],
            [
              -91.7462563,
              30.2591783
            ],
            [
              -91.7462552,
              30.2592685
            ],
            [
              -91.7463591,
              30.2592695
            ],
            [
              -91.7463579,
              30.2593597
            ],
            [
              -91.7464619,
              30.2593607
            ],
            [
              -91.7464607,
              30.259451
            ],
            [
              -91.7463568,
              30.25945
            ],
            [
              -91.7463556,
              30.2595402
            ],
            [
              -91.7462517,
              30.2595392
            ],
            [
              -91.7462483,
              30.2598098
            ],
            [
              -91.7463522,
              30.2598108
            ],
            [
              -91.7463511,
              30.2599011
            ],
            [
              -91.7462471,
              30.2599001
            ],
            [
              -91.7462448,
              30.2600805
            ],
            [
              -91.7461409,
              30.2600795
            ],
            [
              -91.7461386,
              30.26026
            ],
            [
              -91.7460347,
              30.260259
            ],
            [
              -91.7460335,
              30.2603492
            ],
            [
              -91.7461375,
              30.2603502
            ],
            [
              -91.7461363,
              30.2604404
            ],
            [
              -91.7460324,
              30.2604394
            ],
            [
              -91.7460313,
              30.2605296
            ],
            [
              -91.7461352,
              30.2605306
            ],
            [
              -91.746134,
              30.2606208
            ],
            [
              -91.746238,
              30.2606218
            ],
            [
              -91.7462334,
              30.2609827
            ],
            [
              -91.7463373,
              30.2609837
            ],
            [
              -91.7463362,
              30.2610739
            ],
            [
              -91.7464401,
              30.2610749
            ],
            [
              -91.746439,
              30.2611651
            ],
            [
              -91.7465429,
              30.2611661
            ],
            [
              -91.7465417,
              30.2612564
            ],
            [
              -91.7464378,
              30.2612554
            ],
            [
              -91.7464367,
              30.2613456
            ],
            [
              -91.7463327,
              30.2613446
            ],
            [
              -91.7463316,
              30.2614348
            ],
            [
              -91.7462276,
              30.2614338
            ],
            [
              -91.7462265,
              30.261524
            ],
            [
              -91.7461226,
              30.261523
            ],
            [
              -91.7461214,
              30.2616133
            ],
            [
              -91.7460175,
              30.2616123
            ],
            [
              -91.7460152,
              30.2617927
            ],
            [
              -91.7459113,
              30.2617917
            ],
            [
              -91.7459101,
              30.2618819
            ],
            [
              -91.7458062,
              30.2618809
            ],
            [
              -91.7458005,
              30.262332
            ],
            [
              -91.7459044,
              30.262333
            ],
            [
              -91.7459032,
              30.2624233
            ],
            [
              -91.7460072,
              30.2624243
            ],
            [
              -91.746006,
              30.2625145
            ],
            [
              -91.74611,
              30.2625155
            ],
            [
              -91.7461088,
              30.2626057
            ],
            [
              -91.7463167,
              30.2626077
            ],
            [
              -91.7463178,
              30.2625175
            ],
            [
              -91.7464218,
              30.2625185
            ],
            [
              -91.7464206,
              30.2626087
            ],
            [
              -91.7465245,
              30.2626097
            ],
            [
              -91.7465257,
              30.2625195
            ],
            [
              -91.7466296,
              30.2625205
            ],
            [
              -91.7466285,
              30.2626107
            ],
            [
              -91.7467324,
              30.2626117
            ]
          ],
          [
            [
              -91.747155,
              30.2620743
            ],
            [
              -91.7470511,
              30.2620733
            ],
            [
              -91.7470522,
              30.2619831
            ],
            [
              -91.7471562,
              30.2619841
            ],
            [
              -91.747155,
              30.2620743
            ]
          ],
          [
            [
              -91.7470522,
              30.2619831
            ],
            [
              -91.7469483,
              30.2619821
            ],
            [
              -91.7469494,
              30.2618919
            ],
            [
              -91.7470534,
              30.2618929
            ],
            [
              -91.7470522,
              30.2619831
            ]
          ],
          [
            [
              -91.7467485,
              30.2613486
            ],
            [
              -91.7466445,
              30.2613476
            ],
            [
              -91.7466457,
              30.2612574
            ],
            [
              -91.7467496,
              30.2612584
            ],
            [
              -91.7467485,
              30.2613486
            ]
          ],
          [
            [
              -91.7469792,
              30.2595461
            ],
            [
              -91.7468753,
              30.2595452
            ],
            [
              -91.7468776,
              30.2593647
            ],
            [
              -91.7469815,
              30.2593657
            ],
            [
              -91.7469792,
              30.2595461
            ]
          ]
        ]
      },
      "properties": {
        "area_km2": 0.0675,
        "pixel_count": 675,
        "label_id": 16
      }
    },
    {
      "type": "Feature",
      "geometry": {
        "type": "Polygon",
        "coordinates": [
          [
            [
              -91.7420991,
              30.2591384
            ],
            [
              -91.7421003,
              30.2590482
            ],
            [
              -91.7423081,
              30.2590502
            ],
            [
              -91.7423093,
              30.25896
            ],
            [
              -91.7424132,
              30.258961
            ],
            [
              -91.7424144,
              30.2588708
            ],
            [
              -91.7425183,
              30.2588718
            ],
            [
              -91.7425194,
              30.2587815
            ],
            [
              -91.7426234,
              30.2587825
            ],
            [
              -91.7426245,
              30.2586923
            ],
            [
              -91.7427285,
              30.2586933
            ],
            [
              -91.7427296,
              30.2586031
            ],
            [
              -91.7426257,
              30.2586021
            ],
            [
              -91.7426268,
              30.2585119
            ],
            [
              -91.7425229,
              30.2585109
            ],
            [
              -91.7425275,
              30.25815
            ],
            [
              -91.7424236,
              30.258149
            ],
            [
              -91.7424328,
              30.2574272
            ],
            [
              -91.7423288,
              30.2574262
            ],
            [
              -91.7423346,
              30.2569751
            ],
            [
              -91.7426464,
              30.2569781
            ],
            [
              -91.7426475,
              30.2568879
            ],
            [
              -91.7427514,
              30.2568889
            ],
            [
              -91.7427503,
              30.2569791
            ],
            [
              -91.7429581,
              30.2569811
            ],
            [
              -91.7429593,
              30.2568909
            ],
            [
              -91.7431672,
              30.2568929
            ],
            [
              -91.743166,
              30.2569831
            ],
            [
              -91.7432699,
              30.2569841
            ],
            [
              -91.7432688,
              30.2570743
            ],
            [
              -91.7433727,
              30.2570753
            ],
            [
              -91.7433716,
              30.2571656
            ],
            [
              -91.7435794,
              30.2571675
            ],
            [
              -91.7435806,
              30.2570773
            ],
            [
              -91.7436845,
              30.2570783
            ],
            [
              -91.7436856,
              30.2569881
            ],
            [
              -91.7437896,
              30.2569891
            ],
            [
              -91.7437907,
              30.2568989
            ],
            [
              -91.7438946,
              30.2568999
            ],
            [
              -91.7438958,
              30.2568097
            ],
            [
              -91.7437919,
              30.2568087
            ],
            [
              -91.743793,
              30.2567184
            ],
            [
              -91.7436891,
              30.2567174
            ],
            [
              -91.7436902,
              30.2566272
            ],
            [
              -91.7437942,
              30.2566282
            ],
            [
              -91.7437953,
              30.256538
            ],
            [
              -91.7436914,
              30.256537
            ],
            [
              -91.7436925,
              30.2564468
            ],
            [
              -91.7437965,
              30.2564478
            ],
            [
              -91.7437976,
              30.2563576
            ],
            [
              -91.7439015,
              30.2563585
            ],
            [
              -91.7439027,
              30.2562683
            ],
            [
              -91.7437987,
              30.2562673
            ],
            [
              -91.7438022,
              30.2559967
            ],
            [
              -91.7439061,
              30.2559977
            ],
            [
              -91.7439096,
              30.255727
            ],
            [
              -91.7438056,
              30.255726
            ],
            [
              -91.7438068,
              30.2556358
            ],
            [
              -91.7437029,
              30.2556348
            ],
            [
              -91.743704,
              30.2555446
            ],
            [
              -91.7436001,
              30.2555436
            ],
            [
              -91.7436012,
              30.2554534
            ],
            [
              -91.7434973,
              30.2554524
            ],
            [
              -91.7434985,
              30.2553621
            ],
            [
              -91.7433945,
              30.2553611
            ],
            [
              -91.7433957,
              30.2552709
            ],
            [
              -91.7431878,
              30.2552689
            ],
            [
              -91.7431867,
              30.2553591
            ],
            [
              -91.7430828,
              30.2553581
            ],
            [
              -91.7430816,
              30.2554484
            ],
            [
              -91.7429777,
              30.2554474
            ],
            [
              -91.7429765,
              30.2555376
            ],
            [
              -91.7428726,
              30.2555366
            ],
            [
              -91.7428703,
              30.255717
            ],
            [
              -91.7423507,
              30.255712
            ],
            [
              -91.7423495,
              30.2558023
            ],
            [
              -91.7421417,
              30.2558003
            ],
            [
              -91.7421405,
              30.2558905
            ],
            [
              -91.7420366,
              30.2558895
            ],
            [
              -91.7420378,
              30.2557993
            ],
            [
              -91.7418299,
              30.2557973
            ],
            [
              -91.7418288,
              30.2558875
            ],
            [
              -91.7417248,
              30.2558865
            ],
            [
              -91.7417237,
              30.2559767
            ],
            [
              -91.7416198,
              30.2559757
            ],
            [
              -91.7416186,
              30.2560659
            ],
            [
              -91.7415147,
              30.2560649
            ],
            [
              -91.7415124,
              30.2562454
            ],
            [
              -91.7416163,
              30.2562464
            ],
            [
              -91.7416152,
              30.2563366
            ],
            [
              -91.7415112,
              30.2563356
            ],
            [
              -91.7415089,
              30.256516
            ],
            [
              -91.741405,
              30.256515
            ],
            [
              -91.7414038,
              30.2566053
            ],
            [
              -91.7412999,
              30.2566043
            ],
            [
              -91.7412988,
              30.2566945
            ],
            [
              -91.7411948,
              30.2566935
            ],
            [
              -91.7411937,
              30.2567837
            ],
            [
              -91.7410898,
              30.2567827
            ],
            [
              -91.7410863,
              30.2570534
            ],
            [
              -91.7409824,
              30.2570524
            ],
            [
              -91.7409812,
              30.2571426
            ],
            [
              -91.7410852,
              30.2571436
            ],
            [
              -91.7410806,
              30.2575045
            ],
            [
              -91.7409766,
              30.2575035
            ],
            [
              -91.7409755,
              30.2575937
            ],
            [
              -91.7410794,
              30.2575947
            ],
            [
              -91.7410783,
              30.2576849
            ],
            [
              -91.7409743,
              30.2576839
            ],
            [
              -91.7409709,
              30.2579546
            ],
            [
              -91.7410748,
              30.2579556
            ],
            [
              -91.7410702,
              30.2583165
            ],
            [
              -91.7411741,
              30.2583175
            ],
            [
              -91.741173,
              30.2584077
            ],
            [
              -91.7412769,
              30.2584087
            ],
            [
              -91.7412758,
              30.2584989
            ],
            [
              -91.7413797,
              30.2584999
            ],
            [
              -91.7413785,
              30.2585901
            ],
            [
              -91.7414825,
              30.2585911
            ],
            [
              -91.7414813,
              30.2586813
            ],
            [
              -91.7415852,
              30.2586823
            ],
            [
              -91.7415841,
              30.2587726
            ],
            [
              -91.741688,
              30.2587736
            ],
            [
              -91.7416869,
              30.2588638
            ],
            [
              -91.7417908,
              30.2588648
            ],
            [
              -91.7417896,
              30.258955
            ],
            [
              -91.7418936,
              30.258956
            ],
            [
              -91.7418924,
              30.2590462
            ],
            [
              -91.7419964,
              30.2590472
            ],
            [
              -91.7419952,
              30.2591374
            ],
            [
              -91.7420991,
              30.2591384
            ]
          ]
        ]
      },
      "properties": {
        "area_km2": 0.0616,
        "pixel_count": 616,
        "label_id": 17
      }
    }
  ],
  "metadata": {
    "source": "NISAR LSAR GCOV PROVISIONAL",
    "before_granule": "NISAR_L2_PR_GCOV_024_033_A_017_4005_DHDH_A_20260628T112725_20260628T112800_P05023_N_F_J_001",
    "after_granule": "NISAR_L2_PR_GCOV_025_033_A_017_4005_DHDH_A_20260710T112724_20260710T112759_P05023_N_F_J_001",
    "threshold_db": -2.0,
    "total_area_km2": 0.527,
    "geometry_method": "true raster component outlines via rasterio.features.shapes"
  }
}